SL-8 R/B                
1 15483U 85006B   26193.90824245  .00000130  00000+0  51834-4 0  9993
2 15483  74.0452  30.7299 0019277 274.1696 198.9427 14.37844513172028
SL-12 R/B(2)            
1 15772U 85042D   26194.33799958 -.00000045  00000+0  11459-5 0  9990
2 15772  71.1066 182.2653 0037251 288.9019 171.6007 14.22010707132256
SL-14 R/B               
1 15945U 85069B   26194.15193311  .00000236  00000+0  23808-4 0  9993
2 15945  82.5264 266.9480 0019928 133.6634 226.6239 14.86534369191474
SL-16 R/B               
1 16182U 85097B   26194.32650409  .00000023  00000+0  35713-4 0  9995
2 16182  71.0008 236.0472 0005557  55.5288  21.2638 14.16612271105026
SL-14 R/B               
1 16496U 86006B   26194.29590345  .00000238  00000+0  22519-4 0  9990
2 16496  82.5282 141.5445 0075325 215.2341 144.3884 14.86967450167870
COSMOS 1743             
1 16719U 86034A   26194.30899376  .00040278  00000+0  34158-3 0  9996
2 16719  82.5283 300.9082 0005346 182.4895 177.6342 15.69468367199881
SL-14 R/B               
1 16792U 86046B   26194.28507246  .00000252  00000+0  26068-4 0  9999
2 16792  82.4837 321.5152 0023359 169.2264 190.9458 14.85689717145057
SL-14 R/B               
1 16882U 86055B   26194.01299705  .00000219  00000+0  22433-4 0  9993
2 16882  82.5201   8.8481 0017312 278.2008 174.9379 14.85739443137970
AJISAI (EGS)            
1 16908U 86061A   26194.33618463 -.00000097  00000+0  88501-6 0  9995
2 16908  50.0100  66.9879 0011093 247.1661 274.9656 12.44516660483647
SL-14 R/B               
1 17567U 87024B   26193.86886042  .00000255  00000+0  26128-4 0  9994
2 17567  82.5295 335.1103 0017626 201.6604 158.3869 14.86230750106728
COSMOS 1833             
1 17589U 87027A   26193.94637464  .00000112  00000+0  85672-4 0  9993
2 17589  70.9212  62.7271 0024084  12.3136 347.8569 14.13065950 28019
SL-16 R/B               
1 17590U 87027B   26193.90873511 -.00000049  00000+0 -35735-6 0  9994
2 17590  71.0030  12.6244 0007135 283.8055  76.2275 14.17173190 33088
SL-14 R/B               
1 17912U 87038B   26193.92829343  .00000225  00000+0  23116-4 0  9992
2 17912  82.5011 178.8250 0020761 109.1337 251.2130 14.85460619 97824
COSMOS 1844             
1 17973U 87041A   26194.27119578  .00000133  00000+0  93890-4 0  9998
2 17973  70.8997 129.2878 0031444 198.0297 161.9712 14.14580064 21348
SL-14 R/B               
1 18153U 87055B   26194.08511111  .00000203  00000+0  20611-4 0  9991
2 18153  82.4973 230.8148 0019551 322.4660  37.5190 14.85726312 88553
COSMOS 1867             
1 18187U 87060A   26194.33105076 -.00000062  00000+0  14221-4 0  9995
2 18187  65.0119 314.8405 0017095 282.0023  77.9145 14.31518364 37923
SL-14 R/B               
1 18749U 88001B   26194.29103475  .00000219  00000+0  22428-4 0  9992
2 18749  82.5122  77.2146 0018019 178.0088 182.1203 14.85626071 60675
COSMOS 1933             
1 18958U 88020A   26194.25916151  .00001748  00000+0  82327-4 0  9996
2 18958  82.5141 126.6153 0005782 112.3339 247.8509 15.18881961 69280
SL-3 R/B                
1 19046U 88032B   26194.23065521  .00002329  00000+0  10727-3 0  9992
2 19046  97.5268 177.2501 0026330 152.3197 207.9446 15.21022717 71181
SL-16 R/B               
1 19120U 88039B   26193.90997804 -.00000183  00000+0 -63696-4 0  9995
2 19120  71.0137 163.7667 0020732 153.1578 207.0625 14.19631281976150
COSMOS 1953             
1 19210U 88050A   26193.98059710  .00005229  00000+0  17685-3 0  9991
2 19210  82.5060  32.0148 0011685  47.1296 313.0923 15.30319895 56932
SL-8 R/B                
1 19257U 88053B   26193.60904965  .00000118  00000+0  46550-4 0  9991
2 19257  74.0460 242.1964 0019643  28.6362 132.6191 14.38977367994566
COSMOS 1975             
1 19573U 88093A   26193.93113955  .00004197  00000+0  14465-3 0  9993
2 19573  82.5192 351.7977 0012549  89.4067 270.8611 15.29645818 38542
SL-14 R/B               
1 19574U 88093B   26194.33710463  .00000213  00000+0  21618-4 0  9990
2 19574  82.5317 284.0962 0020171 346.6395  79.0021 14.85759423 19672
SL-16 R/B               
1 19650U 88102B   26193.57485962 -.00000216  00000+0 -85082-4 0  9994
2 19650  70.9981 248.7209 0014458 189.6824 170.4023 14.16167252944570
INTERCOSMOS 24          
1 20261U 89080A   26193.98636187  .00000216  00000+0  59295-4 0  9997
2 20261  82.6048  22.8526 1187324   2.0723 358.4698 12.59691388682579
SL-14 R/B               
1 20262U 89080C   26194.16242154  .00000066  00000+0  19255-4 0  9991
2 20262  82.5936  92.6184 1228631 257.9435  88.1663 12.50578237675836
DELTA 1 R/B             
1 20323U 89089B   26194.01497605  .00000155  00000+0  46726-4 0  9997
2 20323  97.0634  21.4399 0070650  86.7138 274.2140 14.50747081913909
ARIANE 40 R/B           
1 20443U 90005H   26194.17219663  .00000110  00000+0  48495-4 0  9999
2 20443  98.2946 250.9785 0010137 179.9827 180.1364 14.39940196910867
DELTA 2 R/B(1)          
1 20453U 90008B   26193.92755865  .00092909  00000+0  57423-3 0  9991
2 20453  35.6002  62.9055 0060055 354.6112   5.3978 15.73246033945753
